0 COSMOS 2251 DEB
1 37491U 93036BLU 13276.89182209  .00000506  00000-0  43510-3 0  1217
2 37491 073.9085 104.2666 0337150 213.3329 144.6242 13.66077718195571
0 COSMOS 2251 DEB
1 37491U 93036BLU 13278.86905749  .00000608  00000-0  51846-3 0  1223
2 37491 073.9106 101.0007 0337712 209.6999 148.4663 13.66081741195844
0 COSMOS 2251 DEB
1 37491U 93036BLU 13280.18721397  .00000613  00000-0  52217-3 0  1236
2 37491 073.9104 098.8257 0337734 207.2652 151.0395 13.66083485196026
0 COSMOS 2251 DEB
1 37491U 93036BLU 13281.87152585  .00000650  00000-0  55211-3 0  1249
2 37491 073.9110 096.0475 0337939 204.1282 154.3828 13.66086454196258
0 COSMOS 2251 DEB
1 37491U 93036BLU 13286.77797462  .00000827  00000-0  69815-3 0  1265
2 37491 073.9142 087.9557 0337031 195.0295 164.0825 13.66097348196921
0 COSMOS 2251 DEB
1 37491U 93036BLU 13287.80319560  .00000878  00000-0  74054-3 0  1277
2 37491 073.9137 086.2691 0336912 193.1672 166.0599 13.66100071197065
0 COSMOS 2251 DEB
1 37491U 93036BLU 13289.78040871  .00001053  00000-0  89050-3 0  1281
2 37491 073.9096 083.0105 0333643 189.8413 169.6152 13.66106589197331
